{
  "type": "FeatureCollection",
  "features": [
    {
      "type": "Feature",
      "properties": {
        "norad_id": 59600,
        "name": "GSAT0227 (GALILEO 30)",
        "group": "galileo",
        "lat": 18.722135612202383,
        "lon": -87.28378114922504,
        "alt_km": 23212.599606431642,
        "timestamp": "2025-12-06T20:37:56.334893+00:00",
        "meta_object_name": "GSAT0227 (GALILEO 30)",
        "meta_object_id": "2024-079C",
        "meta_epoch": "2025-12-03T16:06:35.879040",
        "meta_mean_motion": 1.70474617,
        "meta_eccentricity": 0.00034037,
        "meta_inclination": 54.9912,
        "meta_ra_of_asc_node": 106.5479,
        "meta_arg_of_pericenter": 113.2328,
        "meta_mean_anomaly": 246.7577,
        "meta_ephemeris_type": 0,
        "meta_classification_type": "U",
        "meta_norad_cat_id": 59600,
        "meta_element_set_no": 999,
        "meta_rev_at_epoch": 1003,
        "meta_bstar": 0,
        "meta_mean_motion_dot": 1.8e-07,
        "meta_mean_motion_ddot": 0,
        "tle_line1": "1 59600U 24079C   25337.67124860  .00000018  00000+0  00000+0 0  9993",
        "tle_line2": "2 59600  54.9912 106.5479 0003403 113.2328 246.7577  1.70474617 10033"
      },
      "geometry": {
        "type": "Point",
        "coordinates": [
          -87.28378114922504,
          18.722135612202383
        ]
      }
    },
    {
      "type": "Feature",
      "properties": {
        "norad_id": 61182,
        "name": "GSAT0232 (GALILEO 32)",
        "group": "galileo",
        "lat": -7.14173298763181,
        "lon": -138.38441397444157,
        "alt_km": 23228.281638963545,
        "timestamp": "2025-12-06T20:37:56.334905+00:00",
        "meta_object_name": "GSAT0232 (GALILEO 32)",
        "meta_object_id": "2024-167A",
        "meta_epoch": "2025-12-04T05:35:38.594112",
        "meta_mean_motion": 1.70473104,
        "meta_eccentricity": 0.00021975,
        "meta_inclination": 55.2442,
        "meta_ra_of_asc_node": 226.6647,
        "meta_arg_of_pericenter": 213.7297,
        "meta_mean_anomaly": 325.6534,
        "meta_ephemeris_type": 0,
        "meta_classification_type": "U",
        "meta_norad_cat_id": 61182,
        "meta_element_set_no": 999,
        "meta_rev_at_epoch": 755,
        "meta_bstar": 0,
        "meta_mean_motion_dot": 4.1e-07,
        "meta_mean_motion_ddot": 0,
        "tle_line1": "1 61182U 24167A   25338.23308558  .00000041  00000+0  00000+0 0  9996",
        "tle_line2": "2 61182  55.2442 226.6647 0002197 213.7297 325.6534  1.70473104  7557"
      },
      "geometry": {
        "type": "Point",
        "coordinates": [
          -138.38441397444157,
          -7.14173298763181
        ]
      }
    },
    {
      "type": "Feature",
      "properties": {
        "norad_id": 61183,
        "name": "GSAT0226 (GALILEO 31)",
        "group": "galileo",
        "lat": 52.881777048253554,
        "lon": -19.824707204148474,
        "alt_km": 23213.937724449705,
        "timestamp": "2025-12-06T20:37:56.334917+00:00",
        "meta_object_name": "GSAT0226 (GALILEO 31)",
        "meta_object_id": "2024-167B",
        "meta_epoch": "2025-12-06T09:26:36.340224",
        "meta_mean_motion": 1.70473292,
        "meta_eccentricity": 7.913e-05,
        "meta_inclination": 55.2417,
        "meta_ra_of_asc_node": 226.6105,
        "meta_arg_of_pericenter": 126.2936,
        "meta_mean_anomaly": 51.6212,
        "meta_ephemeris_type": 0,
        "meta_classification_type": "U",
        "meta_norad_cat_id": 61183,
        "meta_element_set_no": 999,
        "meta_rev_at_epoch": 756,
        "meta_bstar": 0,
        "meta_mean_motion_dot": 3.3e-07,
        "meta_mean_motion_ddot": 0,
        "tle_line1": "1 61183U 24167B   25340.39347616  .00000033  00000+0  00000+0 0  9996",
        "tle_line2": "2 61183  55.2417 226.6105 0000791 126.2936  51.6212  1.70473292  7563"
      },
      "geometry": {
        "type": "Point",
        "coordinates": [
          -19.824707204148474,
          52.881777048253554
        ]
      }
    }
  ]
}